
# Worst residual: 93.38 km
# MJD 60836.000000 (2025 Jun 10  0:00)
C44T8P1 = A11l1c8 = A11lJ2o
1 79884U 25000ZZL 25161.49919926  .00000000  00000-0  00000-0 0 26761
2 79884 024.1601 070.0560 7055922 340.2627 276.7217 00.91160965    03

# Worst residual: 65.82 km
# MJD 60837.000000 (2025 Jun 11  0:00)
C44T8P1 = A11l1c8 = A11lJ2o
1 79884U 25000ZZL 25162.49919926  .00000000  00000-0  00000-0 0 26762
2 79884 024.3137 069.8679 7007996 340.9159 244.9048 00.91107748    00

# Worst residual: 81.82 km
# MJD 60838.000000 (2025 Jun 12  0:00)
C44T8P1 = A11l1c8 = A11lJ2o
1 79884U 25000ZZL 25163.49919926  .00000000  00000-0  00000-0 0 26763
2 79884 024.4735 069.6952 6965025 341.5903 213.0566 00.91125195    04

# Worst residual: 91.89 km
# MJD 60839.000000 (2025 Jun 13  0:00)
C44T8P1 = A11l1c8 = A11lJ2o
1 79884U 25000ZZL 25164.49919926  .00000000  00000-0  00000-0 0 26764
2 79884 024.6316 069.5347 6925144 342.2403 181.2284 00.91195356    08

# Worst residual: 122.60 km
# MJD 60840.000000 (2025 Jun 14  0:00)
C44T8P1 = A11l1c8 = A11lJ2o
1 79884U 25000ZZL 25165.49919926  .00000000  00000-0  00000-0 0 26765
2 79884 024.7815 069.3904 6893787 342.8382 149.4171 00.91347132    01

# Worst residual: 161.90 km
# MJD 60841.000000 (2025 Jun 15  0:00)
C44T8P1 = A11l1c8 = A11lJ2o
1 79884U 25000ZZL 25166.49919926  .00000000  00000-0  00000-0 0 26766
2 79884 024.9188 069.2701 6852990 343.3733 117.6291 00.91471888    03

# Worst residual: 163.22 km
# MJD 60842.000000 (2025 Jun 16  0:00)
C44T8P1 = A11l1c8 = A11lJ2o
1 79884U 25000ZZL 25167.49919926  .00000000  00000-0  00000-0 0 26767
2 79884 025.0591 069.1553 6805663 343.9173 085.7674 00.91584303    03

# Worst residual: 117.18 km
# MJD 60843.000000 (2025 Jun 17  0:00)
C44T8P1 = A11l1c8 = A11lJ2o
1 79884U 25000ZZL 25168.49919926  .00000000  00000-0  00000-0 0 26768
2 79884 025.2036 069.0380 6754736 344.5108 053.7816 00.91643744    03

# Worst residual: 119.49 km
# MJD 60844.000000 (2025 Jun 18  0:00)
C44T8P1 = A11l1c8 = A11lJ2o
1 79884U 25000ZZL 25169.49919926  .00000000  00000-0  00000-0 0 26769
2 79884 025.3471 068.9123 6705881 345.1568 021.7049 00.91588484    06

# Worst residual: 123.37 km
# MJD 60845.000000 (2025 Jun 19  0:00)
C44T8P1 = A11l1c8 = A11lJ2o
1 79884U 25000ZZL 25170.49919926  .00000000  00000-0  00000-0 0 26761
2 79884 025.4774 068.7991 6658115 345.7713 349.6924 00.91445185    03

# Worst residual: 149.39 km
# MJD 60846.000000 (2025 Jun 20  0:00)
C44T8P1 = A11l1c8 = A11lJ2o
1 79884U 25000ZZL 25171.49919926  .00000000  00000-0  00000-0 0 26762
2 79884 025.6067 068.6841 6608375 346.3499 317.8153 00.91291782    07

# Worst residual: 112.17 km
# MJD 60847.000000 (2025 Jun 21  0:00)
C44T8P1 = A11l1c8 = A11lJ2o
1 79884U 25000ZZL 25172.49919926  .00000000  00000-0  00000-0 0 26763
2 79884 025.7163 068.5774 6554766 346.9224 286.0117 00.91169198    07

# Worst residual: 53.58 km
# MJD 60848.000000 (2025 Jun 22  0:00)
C44T8P1 = A11l1c8 = A11lJ2o
1 79884U 25000ZZL 25173.49919926  .00000000  00000-0  00000-0 0 26764
2 79884 025.8084 068.4850 6498621 347.5114 254.2146 00.91099653    03

# Worst residual: 77.17 km
# MJD 60849.000000 (2025 Jun 23  0:00)
C44T8P1 = A11l1c8 = A11lJ2o
1 79884U 25000ZZL 25174.49919926  .00000000  00000-0  00000-0 0 26765
2 79884 025.9103 068.4006 6443370 348.1479 222.3644 00.91091643    01

# Worst residual: 89.64 km
# MJD 60850.000000 (2025 Jun 24  0:00)
C44T8P1 = A11l1c8 = A11lJ2o
1 79884U 25000ZZL 25175.49919926  .00000000  00000-0  00000-0 0 26766
2 79884 026.0097 068.3139 6397559 348.7789 190.5422 00.91181878    08

# Worst residual: 113.52 km
# MJD 60851.000000 (2025 Jun 25  0:00)
C44T8P1 = A11l1c8 = A11lJ2o
1 79884U 25000ZZL 25176.49919926  .00000000  00000-0  00000-0 0 26767
2 79884 026.1192 068.2285 6355472 349.3997 158.6964 00.91327677    07

# Worst residual: 155.07 km
# MJD 60852.000000 (2025 Jun 26  0:00)
C44T8P1 = A11l1c8 = A11lJ2o
1 79884U 25000ZZL 25177.49919926  .00000000  00000-0  00000-0 0 26768
2 79884 026.1890 068.1957 6308999 349.8773 126.9405 00.91472833    09

# Worst residual: 166.03 km
# MJD 60853.000000 (2025 Jun 27  0:00)
C44T8P1 = A11l1c8 = A11lJ2o
1 79884U 25000ZZL 25178.49919926  .00000000  00000-0  00000-0 0 26769
2 79884 026.2697 068.1464 6253671 350.3878 095.1070 00.91596162    04

# Worst residual: 123.29 km
# MJD 60854.000000 (2025 Jun 28  0:00)
C44T8P1 = A11l1c8 = A11lJ2o
1 79884U 25000ZZL 25179.49919926  .00000000  00000-0  00000-0 0 26760
2 79884 026.3511 068.0972 6193281 350.9526 063.1435 00.91662573    09

# Worst residual: 139.80 km
# MJD 60855.000000 (2025 Jun 29  0:00)
C44T8P1 = A11l1c8 = A11lJ2o
1 79884U 25000ZZL 25180.49919926  .00000000  00000-0  00000-0 0 26762
2 79884 026.4308 068.0461 6133732 351.5685 031.0864 00.91631890    03

# Worst residual: 157.31 km
# MJD 60856.000000 (2025 Jun 30  0:00)
C44T8P1 = A11l1c8 = A11lJ2o
1 79884U 25000ZZL 25181.49919926  .00000000  00000-0  00000-0 0 26763
2 79884 026.5055 067.9934 6077818 352.1836 359.0610 00.91498504    08

# Worst residual: 148.70 km
# MJD 60857.000000 (2025 Jul  1  0:00)
C44T8P1 = A11l1c8 = A11lJ2o
1 79884U 25000ZZL 25182.49919926  .00000000  00000-0  00000-0 0 26764
2 79884 026.5696 067.9276 6022092 352.7757 327.1656 00.91327177    03

# Worst residual: 124.31 km
# MJD 60858.000000 (2025 Jul  2  0:00)
C44T8P1 = A11l1c8 = A11lJ2o
1 79884U 25000ZZL 25183.49919926  .00000000  00000-0  00000-0 0 26765
2 79884 026.6314 067.8879 5961688 353.3008 295.3625 00.91170490    03

# Worst residual: 53.00 km
# MJD 60859.000000 (2025 Jul  3  0:00)
C44T8P1 = A11l1c8 = A11lJ2o
1 79884U 25000ZZL 25184.49919926  .00000000  00000-0  00000-0 0 26766
2 79884 026.6828 067.8387 5897937 353.8726 263.4821 00.91061823    07

# Worst residual: 64.80 km
# MJD 60860.000000 (2025 Jul  4  0:00)
C44T8P1 = A11l1c8 = A11lJ2o
1 79884U 25000ZZL 25185.49919926  .00000000  00000-0  00000-0 0 26767
2 79884 026.7263 067.7912 5835278 354.5008 231.4399 00.91005266    09

# Worst residual: 85.94 km
# MJD 60861.000000 (2025 Jul  5  0:00)
C44T8P1 = A11l1c8 = A11lJ2o
1 79884U 25000ZZL 25186.49919926  .00000000  00000-0  00000-0 0 26768
2 79884 026.7831 067.7608 5781840 355.1420 199.2493 00.91040570    05

# Worst residual: 123.42 km
# MJD 60862.000000 (2025 Jul  6  0:00)
C44T8P1 = A11l1c8 = A11lJ2o
1 79884U 25000ZZL 25187.49919926  .00000000  00000-0  00000-0 0 26769
2 79884 026.8190 067.7179 5734211 355.7604 166.9199 00.91137913    09

# Worst residual: 133.53 km
# MJD 60863.000000 (2025 Jul  7  0:00)
C44T8P1 = A11l1c8 = A11lJ2o
1 79884U 25000ZZL 25188.49919926  .00000000  00000-0  00000-0 0 26760
2 79884 026.8701 067.7042 5686048 356.2581 134.5171 00.91259349    09

# Worst residual: 153.14 km
# MJD 60864.000000 (2025 Jul  8  0:00)
C44T8P1 = A11l1c8 = A11lJ2o
1 79884U 25000ZZL 25189.49919926  .00000000  00000-0  00000-0 0 26761
2 79884 026.8901 067.6477 5626186 356.7891 101.8991 00.91337413    04
